*******************************************************************************
 Revised: Sep 12, 1996                   Sun                                 10

 PHYSICAL PROPERTIES:
  GM (10^11 km^3/s^2)   = 1.3271243994    Mass (10^30 kg)       =    1.9891
  Radius (photosphere)  = 6.960(10^5) km  Angular diam at 1 AU  = 1919.3"
  Mean density          = 1.408 g/cm^3    Surface gravity       =  274.0 m/s^2
  Moment of inertia     = 0.059           Escape velocity       =  617.7 km/s
  Adopted sidereal per  = 25.38 d         Pole (RA,DEC in deg.) =  286.13,63.87
  Obliquity to ecliptic = 7 deg 15'        

  Solar constant (1 AU) = 1367.6 W/m^2    Solar lumin.(erg/s)   =  3.846(10^33)
  Mass-energy conv rate = 4.3(10^12 gm/s) Effective temp (K)    =  5778
  Surf. temp (photosphr)= 6600 K (bottom) Surf. temp (photosphr)=  4400 K (top)
  Photospheric depth    = ~400 km         Chromospheric depth   = ~2500 km
  Sunspot cycle         = 11.4 yr         Cycle 22 sunspot min. =  1991 A.D.

  Motn. rel to nrby strs= apex : RA=271 deg; DEC=+30 deg
                          speed: 19.4 km/s = 0.0112 AU/day
  Motn. rel to 2.73K BB = apex : l=264.7+-0.8; b=48.2+-0.5
                          speed: 369 +-11 km/s
*******************************************************************************
 
 
*******************************************************************************
Ephemeris / WWW_USER Thu Dec 14 07:47:50 2006  Pasadena, USA     / Horizons    
*******************************************************************************
Target body name: Sun (10)                        {source: DE405}
Center body name: Earth (399)                     {source: DE405}
Center-site name: GEOCENTRIC
*******************************************************************************
Start time      : A.D. 1800-Jan-01 00:00:00.0000 UT      
Stop  time      : A.D. 2006-Dec-31 00:00:00.0000 UT      
Step-size       : 4320 minutes
*******************************************************************************
Target pole/equ : IAU_SUN                         {East-longitude +}
Target radii    : 696000.0 x 696000.0 x 696000.0 k{Equator, meridian, pole}    
Center geodetic : .000000000,.000000000,.00000000 {E-lon(deg),Lat(deg),Alt(km)}
Center cylindric: .000000000,.000000000,.00000000 {E-lon(deg),Dxy(km),Dz(km)}
Center pole/equ : High-precision EOP model        {East-longitude +}
Center radii    : 6378.1 x 6378.1 x 6356.8 km     {Equator, meridian, pole}    
Target primary  : Sun                             {source: DE405+DE406}
Interfering body: MOON (Req= 1737.400) km         {source: DE405}
Deflecting body : Sun, EARTH                      {source: DE405}
Deflecting GMs  : 1.3271E+11, 3.9860E+05 km^3/s^2                              
Atmos refraction: NO (AIRLESS)
RA format       : DEG
Time format     : BOTH
EOP file        : eop.061212.p070305                                           
EOP coverage    : DATA-BASED 1962-JAN-20 TO 2006-DEC-12. PREDICTS-> 2007-MAR-04
Units conversion: 1 AU= 149597870.691 km, c= 299792.458 km/s, 1 day= 86400.0 s 
Table cut-offs 1: Elevation (-90.0deg=NO ),Airmass (>38.000=NO), Daylight (NO )
Table cut-offs 2: Solar Elongation (  0.0,180.0=NO )                           
**************************************************************************************************************************************
 Date__(UT)__HR:MN Date_________JDUT                delta      deldot   PsAng   PsAMV 399_ins_LT SMAA_3sig SMIA_3sig   Theta Area_3sig
**************************************************************************************************************************************
$$SOE
 1918-Feb-18 00:00 2421642.500000000     .988462465067448   0.3498104    n.a.    n.a.   0.000000      n.a.      n.a.    n.a.      n.a.
 1918-Feb-21 00:00 2421645.500000000     .989090263012454   0.3693063    n.a.    n.a.   0.000000      n.a.      n.a.    n.a.      n.a.
 1918-Feb-24 00:00 2421648.500000000     .989753840831796   0.3907882    n.a.    n.a.   0.000000      n.a.      n.a.    n.a.      n.a.
 1918-Feb-27 00:00 2421651.500000000     .990454891144334   0.4122371    n.a.    n.a.   0.000000      n.a.      n.a.    n.a.      n.a.
 1918-Mar-02 00:00 2421654.500000000     .991191681038973   0.4317547    n.a.    n.a.   0.000000      n.a.      n.a.    n.a.      n.a.
 1918-Mar-05 00:00 2421657.500000000     .991959405575010   0.4476956    n.a.    n.a.   0.000000      n.a.      n.a.    n.a.      n.a.
 1918-Mar-08 00:00 2421660.500000000     .992750563498040   0.4585755    n.a.    n.a.   0.000000      n.a.      n.a.    n.a.      n.a.
 1918-Mar-11 00:00 2421663.500000000     .993555414184171   0.4635000    n.a.    n.a.   0.000000      n.a.      n.a.    n.a.      n.a.
 1918-Mar-14 00:00 2421666.500000000     .994364655230926   0.4642962    n.a.    n.a.   0.000000      n.a.      n.a.    n.a.      n.a.
 1918-Mar-17 00:00 2421669.500000000     .995175123566327   0.4657111    n.a.    n.a.   0.000000      n.a.      n.a.    n.a.      n.a.
 1918-Mar-20 00:00 2421672.500000000     .995990871372703   0.4705259    n.a.    n.a.   0.000000      n.a.      n.a.    n.a.      n.a.
 1918-Mar-23 00:00 2421675.500000000     .996817645171767   0.4782249    n.a.    n.a.   0.000000      n.a.      n.a.    n.a.      n.a.
 1918-Mar-26 00:00 2421678.500000000     .997659160908801   0.4872885    n.a.    n.a.   0.000000      n.a.      n.a.    n.a.      n.a.
 1918-Mar-29 00:00 2421681.500000000     .998516372303928   0.4960664    n.a.    n.a.   0.000000      n.a.      n.a.    n.a.      n.a.
 1918-Apr-01 00:00 2421684.500000000     .999387246023826   0.5027571    n.a.    n.a.   0.000000      n.a.      n.a.    n.a.      n.a.
 1918-Apr-04 00:00 2421687.500000000     1.00026653424071   0.5054717    n.a.    n.a.   0.000000      n.a.      n.a.    n.a.      n.a.
 1918-Apr-07 00:00 2421690.500000000     1.00114576992221   0.5024564    n.a.    n.a.   0.000000      n.a.      n.a.    n.a.      n.a.
 1918-Apr-10 00:00 2421693.500000000     1.00201429101955   0.4932835    n.a.    n.a.   0.000000      n.a.      n.a.    n.a.      n.a.
 1918-Apr-13 00:00 2421696.500000000     1.00286353072197   0.4810131    n.a.    n.a.   0.000000      n.a.      n.a.    n.a.      n.a.
 1918-Apr-16 00:00 2421699.500000000     1.00369229499597   0.4702550    n.a.    n.a.   0.000000      n.a.      n.a.    n.a.      n.a.
 1918-Apr-19 00:00 2421702.500000000     1.00450517980702   0.4627016    n.a.    n.a.   0.000000      n.a.      n.a.    n.a.      n.a.
 1918-Apr-22 00:00 2421705.500000000     1.00530732330732   0.4576887    n.a.    n.a.   0.000000      n.a.      n.a.    n.a.      n.a.
 1918-Apr-25 00:00 2421708.500000000     1.00610214515361   0.4540526    n.a.    n.a.   0.000000      n.a.      n.a.    n.a.      n.a.
 1918-Apr-28 00:00 2421711.500000000     1.00689082932259   0.4503258    n.a.    n.a.   0.000000      n.a.      n.a.    n.a.      n.a.
 1918-May-01 00:00 2421714.500000000     1.00767155753309   0.4445024    n.a.    n.a.   0.000000      n.a.      n.a.    n.a.      n.a.
 1918-May-04 00:00 2421717.500000000     1.00843871194152   0.4342925    n.a.    n.a.   0.000000      n.a.      n.a.    n.a.      n.a.
 1918-May-07 00:00 2421720.500000000     1.00918302615206   0.4179873    n.a.    n.a.   0.000000      n.a.      n.a.    n.a.      n.a.
 1918-May-10 00:00 2421723.500000000     1.00989402476698   0.3962599    n.a.    n.a.   0.000000      n.a.      n.a.    n.a.      n.a.
 1918-May-13 00:00 2421726.500000000     1.01056538051385   0.3730203    n.a.    n.a.   0.000000      n.a.      n.a.    n.a.      n.a.
 1918-May-16 00:00 2421729.500000000     1.01119803384155   0.3519789    n.a.    n.a.   0.000000      n.a.      n.a.    n.a.      n.a.
 1918-May-19 00:00 2421732.500000000     1.01179696763465   0.3340901    n.a.    n.a.   0.000000      n.a.      n.a.    n.a.      n.a.
 1918-May-22 00:00 2421735.500000000     1.01236732847459   0.3188944    n.a.    n.a.   0.000000      n.a.      n.a.    n.a.      n.a.
 1918-May-25 00:00 2421738.500000000     1.01291311696676   0.3055562    n.a.    n.a.   0.000000      n.a.      n.a.    n.a.      n.a.
 1918-May-28 00:00 2421741.500000000     1.01343636178237   0.2925330    n.a.    n.a.   0.000000      n.a.      n.a.    n.a.      n.a.
 1918-May-31 00:00 2421744.500000000     1.01393553398678   0.2772984    n.a.    n.a.   0.000000      n.a.      n.a.    n.a.      n.a.
 1918-Jun-03 00:00 2421747.500000000     1.01440442960975   0.2572273    n.a.    n.a.   0.000000      n.a.      n.a.    n.a.      n.a.
 1918-Jun-06 00:00 2421750.500000000     1.01483342513020   0.2313013    n.a.    n.a.   0.000000      n.a.      n.a.    n.a.      n.a.
 1918-Jun-09 00:00 2421753.500000000     1.01521363701080   0.2014976    n.a.    n.a.   0.000000      n.a.      n.a.    n.a.      n.a.
 1918-Jun-12 00:00 2421756.500000000     1.01554167061515   0.1717020    n.a.    n.a.   0.000000      n.a.      n.a.    n.a.      n.a.
 1918-Jun-15 00:00 2421759.500000000     1.01582016646701   0.1445682    n.a.    n.a.   0.000000      n.a.      n.a.    n.a.      n.a.
 1918-Jun-18 00:00 2421762.500000000     1.01605452481453   0.1207750    n.a.    n.a.   0.000000      n.a.      n.a.    n.a.      n.a.
 1918-Jun-21 00:00 2421765.500000000     1.01625049292008   0.1002132    n.a.    n.a.   0.000000      n.a.      n.a.    n.a.      n.a.
 1918-Jun-24 00:00 2421768.500000000     1.01641324676174   0.0822515    n.a.    n.a.   0.000000      n.a.      n.a.    n.a.      n.a.
 1918-Jun-27 00:00 2421771.500000000     1.01654583742539   0.0649263    n.a.    n.a.   0.000000      n.a.      n.a.    n.a.      n.a.
 1918-Jun-30 00:00 2421774.500000000     1.01664662373570   0.0449805    n.a.    n.a.   0.000000      n.a.      n.a.    n.a.      n.a.
 1918-Jul-03 00:00 2421777.500000000     1.01670863796542   0.0199557    n.a.    n.a.   0.000000      n.a.      n.a.    n.a.      n.a.
 1918-Jul-06 00:00 2421780.500000000     1.01672285489137  -0.0099064    n.a.    n.a.   0.000000      n.a.      n.a.    n.a.      n.a.
